     2.10           GLONASS NAV DATA                        RINEX VERSION / TYPE
SPIDER V4,0,0,3554                      2015 03 15 00:05    PGM / RUN BY / DATE 
  2015     2    12   5.587935447693e-009                    CORR TO SYSTEM TIME 
    16                                                      LEAP SECONDS        
                                                            END OF HEADER       
 7 15 02 12 05 45  0.0-1.146653667092D-04-0.000000000000D+00 1.980000000000D+04
   -3.576411132813D+02-3.010742187500D+00-9.313225746155D-10 0.000000000000D+00
    1.137673437500D+04 8.254337310791D-01-0.000000000000D+00 5.000000000000D+00
    2.285123535156D+04-4.602336883545D-01-1.862645149231D-09 0.000000000000D+00
22 15 02 12 05 45  0.0 1.527955755591D-04 1.818989403546D-12 1.980000000000D+04
    1.853805419922D+04 3.404130935669D-01 1.862645149231D-09 0.000000000000D+00
    1.750768945313D+04 5.893516540527D-02-0.000000000000D+00-3.000000000000D+00
    2.063514160156D+03-3.559548377991D+00-1.862645149231D-09 0.000000000000D+00
23 15 02 12 05 45  0.0 3.746990114450D-05-3.637978807092D-12 1.980000000000D+04
    1.706639355469D+04 1.833083152771D+00 0.000000000000D+00 0.000000000000D+00
    5.261385742188D+03 1.696826934814D+00-0.000000000000D+00 3.000000000000D+00
    1.821094873047D+04-2.208059310913D+00-2.793967723846D-09 0.000000000000D+00
